start=new Date('2022-03-16T00:00:00.000Z').valueOf();
sats=[{"CLASSIFICATION_TYPE":"U","INCLINATION":"53.0536","TIME_SYSTEM":"UTC","OBJECT_TYPE":"PAYLOAD","COUNTRY_CODE":"US","MEAN_MOTION_DDOT":"0.0000000000000","PERIAPSIS":"545.718","MEAN_ELEMENT_THEORY":"SGP4","EPOCH":"2022-03-15T19:55:24.270528","GP_ID":"198819734","MEAN_MOTION":"15.06371803","REF_FRAME":"TEME","RCS_SIZE":"LARGE","ECCENTRICITY":"0.00022840","LAUNCH_DATE":"2021-05-15","BSTAR":"-0.00103670000000","REV_AT_EPOCH":"4617","NORAD_CAT_ID":"48570","RA_OF_ASC_NODE":"192.7307","MEAN_ANOMALY":"304.4550","ARG_OF_PERICENTER":"55.6655","DECAY_DATE":null,"SEMIMAJOR_AXIS":"6925.435","CENTER_NAME":"EARTH","OBJECT_ID":"2021-041T","MEAN_MOTION_DOT":"-0.00015679","APOAPSIS":"548.882","ELEMENT_SET_NO":"999","EPHEMERIS_TYPE":"0","FILE":"3360673","OBJECT_NAME":"STARLINK-2220","SITE":"AFETR","PERIOD":"95.594","TLE_LINE2":"2 48570  53.0536 192.7307 0002284  55.6655 304.4550 15.06371803 46178","TLE_LINE1":"1 48570U 21041T   22074.83014202 -.00015679  00000-0 -10367-2 0  9996"},{"MEAN_ELEMENT_THEORY":"SGP4","PERIAPSIS":"545.959","EPOCH":"2022-03-15T20:06:01.174176","COUNTRY_CODE":"US","MEAN_MOTION_DDOT":"0.0000000000000","REV_AT_EPOCH":"4618","NORAD_CAT_ID":"48571","GP_ID":"198819229","MEAN_MOTION":"15.06383894","REF_FRAME":"TEME","RCS_SIZE":"LARGE","ECCENTRICITY":"0.00018830","LAUNCH_DATE":"2021-05-15","BSTAR":"-0.00056297000000","CLASSIFICATION_TYPE":"U","INCLINATION":"53.0532","TIME_SYSTEM":"UTC","OBJECT_TYPE":"PAYLOAD","MEAN_MOTION_DOT":"-0.00008654","APOAPSIS":"548.567","CENTER_NAME":"EARTH","OBJECT_ID":"2021-041U","TLE_LINE1":"1 48571U 21041U   22074.83751359 -.00008654  00000-0 -56297-3 0  9996","ELEMENT_SET_NO":"999","EPHEMERIS_TYPE":"0","FILE":"3360673","OBJECT_NAME":"STARLINK-2221","SITE":"AFETR","TLE_LINE2":"2 48571  53.0532 192.7147 0001883  58.9026 301.2148 15.06383894 46181","PERIOD":"95.593","ARG_OF_PERICENTER":"58.9026","RA_OF_ASC_NODE":"192.7147","MEAN_ANOMALY":"301.2148","SEMIMAJOR_AXIS":"6925.398","DECAY_DATE":null},{"APOAPSIS":"548.202","MEAN_MOTION_DOT":"0.00003950","OBJECT_ID":"2021-041V","CENTER_NAME":"EARTH","TLE_LINE1":"1 48572U 21041V   22074.83382423  .00003950  00000-0  28389-3 0  9992","PERIOD":"95.592","TLE_LINE2":"2 48572  53.0541 192.7210 0001462  83.7588 276.3568 15.06407780 45789","SITE":"AFETR","EPHEMERIS_TYPE":"0","FILE":"3360930","OBJECT_NAME":"STARLINK-2222","ELEMENT_SET_NO":"999","ARG_OF_PERICENTER":"83.7588","MEAN_ANOMALY":"276.3568","RA_OF_ASC_NODE":"192.7210","SEMIMAJOR_AXIS":"6925.325","DECAY_DATE":null,"EPOCH":"2022-03-15T20:00:42.413472","PERIAPSIS":"546.177","MEAN_ELEMENT_THEORY":"SGP4","MEAN_MOTION_DDOT":"0.0000000000000","COUNTRY_CODE":"US","NORAD_CAT_ID":"48572","REV_AT_EPOCH":"4578","BSTAR":"0.00028389000000","LAUNCH_DATE":"2021-05-15","RCS_SIZE":"LARGE","ECCENTRICITY":"0.00014620","GP_ID":"198847411","REF_FRAME":"TEME","MEAN_MOTION":"15.06407780","CLASSIFICATION_TYPE":"U","OBJECT_TYPE":"PAYLOAD","TIME_SYSTEM":"UTC","INCLINATION":"53.0541"},{"ARG_OF_PERICENTER":"68.0397","MEAN_ANOMALY":"292.0763","RA_OF_ASC_NODE":"182.8049","SEMIMAJOR_AXIS":"6925.420","DECAY_DATE":null,"APOAPSIS":"548.395","MEAN_MOTION_DOT":"-0.00013226","OBJECT_ID":"2021-041W","CENTER_NAME":"EARTH","TLE_LINE1":"1 48573U 21041W   22074.81260768 -.00013226  00000-0 -87118-3 0  9992","SITE":"AFETR","PERIOD":"95.594","TLE_LINE2":"2 48573  53.0526 182.8049 0001603  68.0397 292.0763 15.06376584 46368","ELEMENT_SET_NO":"999","FILE":"3360673","EPHEMERIS_TYPE":"0","OBJECT_NAME":"STARLINK-2224","CLASSIFICATION_TYPE":"U","TIME_SYSTEM":"UTC","OBJECT_TYPE":"PAYLOAD","INCLINATION":"53.0526","PERIAPSIS":"546.175","MEAN_ELEMENT_THEORY":"SGP4","EPOCH":"2022-03-15T19:30:09.303552","MEAN_MOTION_DDOT":"0.0000000000000","COUNTRY_CODE":"US","NORAD_CAT_ID":"48573","REV_AT_EPOCH":"4636","LAUNCH_DATE":"2021-05-15","BSTAR":"-0.00087118000000","REF_FRAME":"TEME","GP_ID":"198819224","MEAN_MOTION":"15.06376584","ECCENTRICITY":"0.00016030","RCS_SIZE":"LARGE"},{"TLE_LINE1":"1 48574U 21041X   22074.91667824 -.00047182  00000-0 -31735-2 0  9999","EPHEMERIS_TYPE":"0","FILE":"3360930","OBJECT_NAME":"STARLINK-2225","ELEMENT_SET_NO":"999","TLE_LINE2":"2 48574  53.0538 152.3443 0001492  52.8551   1.9528 15.06355495  3593","PERIOD":"95.595","SITE":"AFETR","MEAN_MOTION_DOT":"-0.00047182","APOAPSIS":"548.383","CENTER_NAME":"EARTH","OBJECT_ID":"2021-041X","SEMIMAJOR_AXIS":"6925.485","DECAY_DATE":null,"ARG_OF_PERICENTER":"52.8551","RA_OF_ASC_NODE":"152.3443","MEAN_ANOMALY":"1.9528","REV_AT_EPOCH":"359","NORAD_CAT_ID":"48574","RCS_SIZE":"LARGE","ECCENTRICITY":"0.00014920","GP_ID":"198846911","MEAN_MOTION":"15.06355495","REF_FRAME":"TEME","BSTAR":"-0.00317350000000","LAUNCH_DATE":"2021-05-15","EPOCH":"2022-03-15T22:00:00.999936","PERIAPSIS":"546.317","MEAN_ELEMENT_THEORY":"SGP4","COUNTRY_CODE":"US","MEAN_MOTION_DDOT":"0.0000000000000","INCLINATION":"53.0538","OBJECT_TYPE":"PAYLOAD","TIME_SYSTEM":"UTC","CLASSIFICATION_TYPE":"U"},{"OBJECT_ID":"2021-041Y","CENTER_NAME":"EARTH","APOAPSIS":"548.195","MEAN_MOTION_DOT":"-0.00024979","PERIOD":"95.591","TLE_LINE2":"2 48575  53.0563 142.3506 0001475  56.5925  33.2336 15.06413057  3592","SITE":"AFETR","OBJECT_NAME":"STARLINK-2227","FILE":"3360930","EPHEMERIS_TYPE":"0","ELEMENT_SET_NO":"999","TLE_LINE1":"1 48575U 21041Y   22074.91667824 -.00024979  00000-0 -16633-2 0  9999","MEAN_ANOMALY":"33.2336","RA_OF_ASC_NODE":"142.3506","ARG_OF_PERICENTER":"56.5925","DECAY_DATE":null,"SEMIMAJOR_AXIS":"6925.309","MEAN_MOTION_DDOT":"0.0000000000000","COUNTRY_CODE":"US","EPOCH":"2022-03-15T22:00:00.999936","MEAN_ELEMENT_THEORY":"SGP4","PERIAPSIS":"546.152","BSTAR":"-0.00166330000000","LAUNCH_DATE":"2021-05-15","ECCENTRICITY":"0.00014750","RCS_SIZE":"LARGE","GP_ID":"198847662","MEAN_MOTION":"15.06413057","REF_FRAME":"TEME","NORAD_CAT_ID":"48575","REV_AT_EPOCH":"359","CLASSIFICATION_TYPE":"U","OBJECT_TYPE":"PAYLOAD","TIME_SYSTEM":"UTC","INCLINATION":"53.0563"},{"DECAY_DATE":null,"SEMIMAJOR_AXIS":"6925.231","RA_OF_ASC_NODE":"157.2770","MEAN_ANOMALY":"232.6350","ARG_OF_PERICENTER":"49.5420","ELEMENT_SET_NO":"999","OBJECT_NAME":"STARLINK-2228","FILE":"3360930","EPHEMERIS_TYPE":"0","SITE":"AFETR","TLE_LINE2":"2 48576  53.0574 157.2770 0001759  49.5420 232.6350 15.06438198  3583","PERIOD":"95.590","TLE_LINE1":"1 48576U 21041Z   22074.91667824 -.00071989  00000-0 -48580-2 0  9999","CENTER_NAME":"EARTH","OBJECT_ID":"2021-041Z","MEAN_MOTION_DOT":"-0.00071989","APOAPSIS":"548.315","INCLINATION":"53.0574","TIME_SYSTEM":"UTC","OBJECT_TYPE":"PAYLOAD","CLASSIFICATION_TYPE":"U","GP_ID":"198847911","MEAN_MOTION":"15.06438198","REF_FRAME":"TEME","RCS_SIZE":"LARGE","ECCENTRICITY":"0.00017590","LAUNCH_DATE":"2021-05-15","BSTAR":"-0.00485800000000","REV_AT_EPOCH":"358","NORAD_CAT_ID":"48576","COUNTRY_CODE":"US","MEAN_MOTION_DDOT":"0.0000000000000","PERIAPSIS":"545.878","MEAN_ELEMENT_THEORY":"SGP4","EPOCH":"2022-03-15T22:00:00.999936"},{"CENTER_NAME":"EARTH","OBJECT_ID":"2021-041AA","MEAN_MOTION_DOT":"-0.00000775","APOAPSIS":"548.119","ELEMENT_SET_NO":"999","FILE":"3360930","EPHEMERIS_TYPE":"0","OBJECT_NAME":"STARLINK-2231","SITE":"AFETR","TLE_LINE2":"2 48577  53.0544 183.7374 0001328  82.2635 277.8504 15.06404694 45884","PERIOD":"95.592","TLE_LINE1":"1 48577U 21041AA  22074.60621684 -.00000775  00000-0 -33152-4 0  9996","RA_OF_ASC_NODE":"183.7374","MEAN_ANOMALY":"277.8504","ARG_OF_PERICENTER":"82.2635","DECAY_DATE":null,"SEMIMAJOR_AXIS":"6925.334","COUNTRY_CODE":"US","MEAN_MOTION_DDOT":"0.0000000000000","MEAN_ELEMENT_THEORY":"SGP4","PERIAPSIS":"546.279","EPOCH":"2022-03-15T14:32:57.134976","MEAN_MOTION":"15.06404694","GP_ID":"198848162","REF_FRAME":"TEME","RCS_SIZE":"LARGE","ECCENTRICITY":"0.00013280","LAUNCH_DATE":"2021-05-15","BSTAR":"-0.00003315200000","REV_AT_EPOCH":"4588","NORAD_CAT_ID":"48577","CLASSIFICATION_TYPE":"U","INCLINATION":"53.0544","TIME_SYSTEM":"UTC","OBJECT_TYPE":"PAYLOAD"},{"CLASSIFICATION_TYPE":"U","INCLINATION":"53.0538","OBJECT_TYPE":"PAYLOAD","TIME_SYSTEM":"UTC","COUNTRY_CODE":"US","MEAN_MOTION_DDOT":"0.0000000000000","EPOCH":"2022-03-15T15:40:35.184864","MEAN_ELEMENT_THEORY":"SGP4","PERIAPSIS":"546.162","RCS_SIZE":"LARGE","ECCENTRICITY":"0.00015290","GP_ID":"198846412","MEAN_MOTION":"15.06397688","REF_FRAME":"TEME","BSTAR":"-0.00010664000000","LAUNCH_DATE":"2021-05-15","REV_AT_EPOCH":"4589","NORAD_CAT_ID":"48578","RA_OF_ASC_NODE":"183.5360","MEAN_ANOMALY":"293.7370","ARG_OF_PERICENTER":"66.3779","DECAY_DATE":null,"SEMIMAJOR_AXIS":"6925.356","CENTER_NAME":"EARTH","OBJECT_ID":"2021-041AB","MEAN_MOTION_DOT":"-0.00001869","APOAPSIS":"548.280","FILE":"3360930","EPHEMERIS_TYPE":"0","OBJECT_NAME":"STARLINK-2232","ELEMENT_SET_NO":"999","PERIOD":"95.592","TLE_LINE2":"2 48578  53.0538 183.5360 0001529  66.3779 293.7370 15.06397688 45899","SITE":"AFETR","TLE_LINE1":"1 48578U 21041AB  22074.65318501 -.00001869  00000-0 -10664-3 0  9990"},{"APOAPSIS":"548.149","MEAN_MOTION_DOT":"-0.00001170","OBJECT_ID":"2021-041AC","CENTER_NAME":"EARTH","TLE_LINE1":"1 48579U 21041AC  22074.79420404 -.00001170  00000-0 -59663-4 0  9990","PERIOD":"95.593","TLE_LINE2":"2 48579  53.0540 182.9063 0001316  67.9266 292.1863 15.06392004 46368","SITE":"AFETR","EPHEMERIS_TYPE":"0","FILE":"3360676","OBJECT_NAME":"STARLINK-2233","ELEMENT_SET_NO":"999","ARG_OF_PERICENTER":"67.9266","MEAN_ANOMALY":"292.1863","RA_OF_ASC_NODE":"182.9063","SEMIMAJOR_AXIS":"6925.373","DECAY_DATE":null,"EPOCH":"2022-03-15T19:03:39.229056","MEAN_ELEMENT_THEORY":"SGP4","PERIAPSIS":"546.327","MEAN_MOTION_DDOT":"0.0000000000000","COUNTRY_CODE":"US","NORAD_CAT_ID":"48579","REV_AT_EPOCH":"4636","BSTAR":"-0.00005966300000","LAUNCH_DATE":"2021-05-15","RCS_SIZE":"LARGE","ECCENTRICITY":"0.00013160","GP_ID":"198819750","MEAN_MOTION":"15.06392004","REF_FRAME":"TEME","CLASSIFICATION_TYPE":"U","OBJECT_TYPE":"PAYLOAD","TIME_SYSTEM":"UTC","INCLINATION":"53.0540"}];
